,address,categories,city,country,latitude,longitude,name,postalCode,province,websites
0,800 N Canal Blvd,American Restaurant and Fast Food Restaurant,Thibodaux,US,29.814697,-90.814742,SONIC Drive In,70301,LA,"https://locations.sonicdrivein.com/la/thibodaux/800-north-canal-boulevard.html,http://sonicdrivein.com,http://www.sonicdrivein.com"
1,800 N Canal Blvd,Fast Food Restaurants,Thibodaux,US,29.814697,-90.814742,SONIC Drive In,70301,LA,"https://locations.sonicdrivein.com/la/thibodaux/800-north-canal-boulevard.html,http://sonicdrivein.com,http://www.sonicdrivein.com"
2,206 Wears Valley Rd,Fast Food Restaurant,Pigeon Forge,US,35.803788,-83.580553,Taco Bell,37863,TN,"http://www.tacobell.com,https://locations.tacobell.com/tn/pigeon-forge/206-wears-valley-road.html?utm_source=yextandutm_campaign=yextpowerlistingsandutm_medium=referralandutm_term=026432andutm_content=website"
3,3652 Parkway,Fast Food,Pigeon Forge,US,35.782339,-83.551408,Arby's,37863,TN,"http://www.arbys.com,https://locations.arbys.com/us/tn/pigeon-forge/3652-parkway.html"
4,2118 Mt Zion Parkway,Fast Food Restaurant,Morrow,US,33.562738,-84.321143,Steak 'n Shake,30260,GA,http://www.steaknshake.com/locations/23851-steak-n-shake-mt-zion-parkway-morrow
5,9768 Grand River Ave,Fast Food Restaurant,Detroit,US,42.368823,-83.138251,Wendy's,48204,MI,http://www.wendys.com
6,13600 W McNichols Rd,Fast Food Restaurant,Detroit,US,42.416819,-83.180444,Burger King,48235,MI,"http://bk.com,http://www.bk.com"
7,4111 Oceanside Blvd,Fast Food,Oceanside,US,33.205722,-117.288645,Chipotle Mexican Grill,92056,CA,"http://www.chipotle.com,http://www.lasalsa.com"
8,162 Old Country Rd,Fast Food Restaurants,Riverhead,US,40.937359,-72.650142,7-Eleven,11901,NY,"http://www.7-eleven.com/?yext=39326,http://www.7-eleven.com"
9,1407 S Stockton Ave,Fast Food Restaurant,Monahans,US,31.580721,-102.891455,Dairy Queen,79756,TX,"http://www.dairyqueen.com,http://api.citygridmedia.com/content/places/v2/click?q=9YKflVKbY9NauPJdMy0B1gS1IhB4xv4EWw0zDoT-UWc_izWF3zs5PKGdfOHubWrvM0QwDCYwbOH2fdLi0dK5xArULcksCCbfR-WWAz9xD1AmGVAQZIom4U3n5R4DuRC8WJCtvJcNItEKoCSfzwapuGnmwGnHDpEGYXGjnN4u8zXqkiimSHFf4_dbqGRbVgNJqRG97esP_MxDChA8jm1fugloTMDPF7zOe73z7Rzg5g9Epb5tslb4Ce2O9bVs-3osjI7W1LXK0P8-ceZJLb_Zm0NuJ46OZRPXqASUtjZowHbqYHz_KHREl3SRL-RlGbE5woot3O2zSqAWVHg-OlWhMHHJ9TR1jaOXMbzQAnUcZehcpq17Fx8TdD5LnknOH2OhntcYkp-Hmhc2uj_O6yVorIqEVf5Z62kWufiQ_mpIyS3EC2lcbYW-Qo4k6KLlDUXBhz61tD0Ed-XxpaLD24rGhItu5TjcLVVa3Tx4vbMdbUZcI1ZgYjFCwkqBDsIe7zQCbZJ1aOHgTBcCkHjLqSMEJ-VSSeMC2Y1vDdmeULpiA18&placement=listing_profile&cs_user=unknown&cs_session=9e084e19d8cf38f4a2ac131f1e6b96b494a6e801"
10,208 W Mason St,Fast Food Restaurant and Ice Cream Shop,Mabank,US,32.36602,-96.103364,Dairy Queen,75147,TX,http://dairyqueen.com
11,5801 Highway 6,Ice Cream Shop and Fast Food Restaurant,Missouri City,US,29.570079,-95.568166,Dairy Queen,77459,TX,http://www.dairyqueen.com
12,3454 Manchester Rd,Fast Food Restaurant,Akron,US,41.005682,-81.555774,Mr. Hero,44319,OH,http://mrhero.com
13,1500 E Main St,Fast Food Restaurants,Eastland,US,32.401088,-98.790162,Golden Chick,76448,TX,"http://locations.goldenchick.com/tx/eastland/1202,http://goldenchick.com"
14,1190 W Foothill Blvd,Fast Food Restaurant,Azusa,US,34.133291,-117.924566,Carl's Jr,91702,CA,"http://www.carlsjr.com,http://www.carlsjr.com/"
15,601 N Main St,Fast Food Restaurants,Summerville,US,33.026572,-80.169733,Checkers,29483,SC,"https://locations.checkers.com/sc/summerville/601-n.-main-st.,https://www.checkers.com,http://www.checkers.com"
16,1927 Woodville Road,Fast Food,Oregon,US,41.627298,-83.502436,Rally's,43616,OH,http://rallys.com/
17,6316 W 89th St,Fast Food,Los Angeles,US,33.955923,-118.396443,Togo's,90045,CA,http://www.togosspeedlunch.com/
18,3105 Highway 80 E,Fast Food Restaurants,Pearl,US,32.282328,-90.11677,Rally's,39208,MS,https://locations.rallys.com/ms/pearl/3105-highway-80-e-%C2%A0
19,2860 E Paris Ave SE,Fast Food Restaurant,Grand Rapids,US,42.91147,-85.56812,Checkers,49512,MI,"https://locations.checkers.com/mi/kentwood/2860-e-paris-ave-se,https://www.checkers.com,https://www.checkers.com/,http://www.checkers.com"
20,2424 E State Road 44,Fast Food Restaurant,Shelbyville,US,39.523704,-85.743659,Rally's,46176,IN,"https://locations.rallys.com/in/shelbyville/2424-e.-state-road-44,http://www.checkers.com,http://rallys.com,http://checkers.com"
21,1611 Broadway,Fast Food,Brooklyn,US,40.685506,-73.914457,Checkers,11207,NY,"https://locations.checkers.com/ny/brooklyn/1611-broadway,http://checkers.com,http://www.checkers.com"
22,1720 Walton Way,Fast Food Restaurants,Augusta,US,33.475292,-81.995946,Checkers,30904,GA,"https://locations.checkers.com/ga/augusta/1720-walton-way,https://www.checkers.com"
23,17620 Grand River Ave,Fast Food Restaurant,Detroit,US,42.400037,-83.21574,Checkers,48227,MI,https://locations.checkers.com/mi/detroit/17620-grand-river-ave
24,196 Massachusetts Ave,Fast Food Restaurants,Arlington,US,42.405651,-71.14212,Little Q Hot Pot,2474,MA,http://littleqhotpotma.com
25,1224 State St,Fast Food,Schenectady,US,42.79792,-73.924364,McDonald's,12304,NY,"http://mcdonalds.com,http://www.mcdonalds.com/?cid=RF:YXT_FM:TP::Yext:Referral"
26,1232 Ulster Ave,Fast Food Restaurant,Kingston,US,41.967079,-73.988583,McDonald's,12401,NY,"http://mcdonalds.com,http://www.mcdonalds.com/?cid=RF:YXT_FM:TP::Yext:Referral"
27,1188 Avenue of The Americas,Fast Food Restaurant,New York,US,40.757558,-73.981671,McDonald's,10036,NY,http://mcdonalds.com/
28,114 Delancey St,Fast Food Restaurant,New York,US,40.718943,-73.988306,McDonald's,10002,NY,http://mcdonalds.com
29,1050 Front St,Fast Food Restaurants,Uniondale,US,40.709646,-73.591453,McDonald's,11553,NY,"http://mcdonalds.com,http://www.mcdonalds.com/?cid=RF:YXT_FM:TP::Yext:Referral"
30,105 Jericho Tpke,Fast Food Restaurant,Jericho,US,40.780233,-73.55934,McDonald's,11753,NY,"http://api.citygridmedia.com/content/places/v2/click?q=9YKflVKbY9NauPJdMy0B1gS1IhB4xv4ESe32aGoZZfGxPUKOAupg6AXFQsvl2-A1Ztd21x5FLKumNpUzGNTBeMk2RvPjC41ZIvgiFwjULRMf936HQ-3fDilu-Jgq-3DroFPqeb7LaXUO4XtGt4yXSJsg9W4tlLVRNocJRkydaRxa9wTgFisP8W1xHayi-pt4RT9UEBPO-64wX56BjzHLd30Vtc-E6tRn5Qu0eRc_DBQJlwYp8xTFBgQya-MzslAXqjYZJM60OQr_B_qw5j5R4po2lD4Bp7jBUJxb4mT_1yq0HrpM06V32safH8oc3ObTxX9_UKu9KEaQ7a5AB3RPweBodwruhmy6MJ1E0Fxm24zDrEGC31jcXkhlbSnNd5qVXz9k4rQUcMgo15OqXI_h7YvMn1AbfZSc1vKFfhUKB4xYwesNPYNLOd-O1d7LqWAuRfdmk9LpXp9Q4zcDWkNf4C7MeEajoEYfZru37-IFNUxi-19j6W-OiKcOftcd_UqL7Hf-CAQngzLDAOT2PALtFvXhDiuE0gq5&placement=listing_profile.c&cs_user=unknown&cs_session=fa3e41570a83c445cc822273e5417e8878250b09,http://mcdonalds.com,http://www.mcdonalds.com/?cid=RF:YXT_FM:TP::Yext:Referral"
31,105 Jericho Tpke,Fast Food,Jericho,US,40.780233,-73.55934,McDonald's,11753,NY,"http://api.citygridmedia.com/content/places/v2/click?q=9YKflVKbY9NauPJdMy0B1gS1IhB4xv4ESe32aGoZZfGxPUKOAupg6AXFQsvl2-A1Ztd21x5FLKumNpUzGNTBeMk2RvPjC41ZIvgiFwjULRMf936HQ-3fDilu-Jgq-3DroFPqeb7LaXUO4XtGt4yXSJsg9W4tlLVRNocJRkydaRxa9wTgFisP8W1xHayi-pt4RT9UEBPO-64wX56BjzHLd30Vtc-E6tRn5Qu0eRc_DBQJlwYp8xTFBgQya-MzslAXqjYZJM60OQr_B_qw5j5R4po2lD4Bp7jBUJxb4mT_1yq0HrpM06V32safH8oc3ObTxX9_UKu9KEaQ7a5AB3RPweBodwruhmy6MJ1E0Fxm24zDrEGC31jcXkhlbSnNd5qVXz9k4rQUcMgo15OqXI_h7YvMn1AbfZSc1vKFfhUKB4xYwesNPYNLOd-O1d7LqWAuRfdmk9LpXp9Q4zcDWkNf4C7MeEajoEYfZru37-IFNUxi-19j6W-OiKcOftcd_UqL7Hf-CAQngzLDAOT2PALtFvXhDiuE0gq5&placement=listing_profile.c&cs_user=unknown&cs_session=fa3e41570a83c445cc822273e5417e8878250b09,http://mcdonalds.com,http://www.mcdonalds.com/?cid=RF:YXT_FM:TP::Yext:Referral"
32,106 Wolf Rd,Fast Food Restaurants,Albany,US,42.716812,-73.809319,McDonald's,12205,NY,"http://mcdonalds.com,http://www.mcdonalds.com/?cid=RF:YXT_FM:TP::Yext:Referral"
33,101 E 170th St,Fast Food,Bronx,US,40.839569,-73.915927,McDonald's,10452,NY,"http://mcdonalds.com,http://mcdonalds.com/"
34,103 Brookview Dr,Fast Food,Schenectady,US,42.741061,-73.913673,McDonald's,12303,NY,"http://mcdonalds.com,http://www.mcdonalds.com/?cid=RF:YXT_FM:TP::Yext:Referral,http://www.mcdonalds.com"
35,1028 Mckinley Pkwy,Fast Food Restaurants,Buffalo,US,42.857899,-78.825089,McDonald's,14220,NY,"http://www.mcdonalds.com/?cid=RF:YXT_FM:TP::Yext:Referral,http://mcdonalds.com"
36,10 Main St,Fast Food Restaurants,Tonawanda,US,43.021019,-78.878167,McDonald's,14150,NY,"http://mcdonalds.com,http://www.mcdonalds.com/?cid=RF:YXT_FM:TP::Yext:Referral"
37,300 Mishawum Rd,Fast Food,Woburn,US,42.503903,-71.132748,McDonald's,1801,MA,"http://mcdonalds.com,http://www.mcdonalds.com"
38,1190 Providence Rd,Fast Food Restaurant,Whitinsville,US,42.125526,-71.645913,McDonald's,1588,MA,http://www.mcdonalds.com
39,212 Main St,Fast Food,Wilmington,US,42.557448,-71.181499,McDonald's,1887,MA,"http://mcdonalds.com,http://www.mcdonalds.com/?cid=RF:YXT_FM:TP::Yext:Referral"
40,44 E Main St,Fast Food,Webster,US,42.055826,-71.873999,McDonald's,1570,MA,"http://mcdonalds.com,http://www.mcdonalds.com/?cid=RF:YXT_FM:TP::Yext:Referral"
41,789 Main St,Fast Food,Waltham,US,42.376247,-71.241667,McDonald's,2451,MA,"http://mcdonalds.com,http://www.mcdonalds.com/?cid=RF:YXT_FM:TP::Yext:Referral,http://www.mcdonalds.com"
42,20 Main St,Fast Food Restaurant,Townsend,US,42.650503,-71.662674,McDonald's,1469,MA,"http://www.mcdonalds.com/?cid=RF:YXT_FM:TP::Yext:Referral,http://mcdonalds.com"
43,595 Main St,Fast Food Restaurant,Walpole,US,42.157222,-71.243549,McDonald's,2081,MA,"http://mcdonalds.com,http://www.mcdonalds.com/?cid=RF:YXT_FM:TP::Yext:Referral,http://www.mcdonalds.com"
44,282 Winthrop St,Fast Food,Taunton,US,41.88896,-71.120789,McDonald's,2780,MA,"http://mcdonalds.com,http://www.mcdonalds.com/?cid=RF:YXT_FM:TP::Yext:Referral"
45,660 Liberty St,Fast Food,Springfield,US,42.12193,-72.584242,McDonald's,1104,MA,"http://mcdonalds.com,http://www.mcdonalds.com/?cid=RF:YXT_FM:TP::Yext:Referral,http://www.mcdonalds.com"
46,360 Main St,Fast Food Restaurants,Springfield,US,42.091561,-72.579647,McDonald's,1105,MA,"http://mcdonalds.com,http://www.mcdonalds.com/?cid=RF:YXT_FM:TP::Yext:Referral,http://www.mcdonalds.com"
47,2392 Main St,Fast Food Restaurants,Springfield,US,42.111552,-72.603359,McDonald's,1107,MA,"http://mcdonalds.com,http://www.mcdonalds.com/?cid=RF:YXT_FM:TP::Yext:Referral"
48,1402 Allen St,Fast Food Restaurant,Springfield,US,42.095053,-72.512539,McDonald's,1118,MA,"http://mcdonalds.com,http://www.mcdonalds.com/?cid=RF:YXT_FM:TP::Yext:Referral,http://www.mcdonalds.com"
49,1610 Boston Rd,Fast Food Restaurants,Springfield,US,42.142989,-72.48923,McDonald's,1129,MA,http://www.mcdonalds.com/?cid=RF:YXT_FM:TP::Yext:Referral
50,59 W Main St,Fast Food Restaurants,Spencer,US,42.23341,-72.012516,McDonald's,1562,MA,"http://mcdonalds.com,http://www.mcdonalds.com/?cid=RF:YXT_FM:TP::Yext:Referral"
51,59 W Main St,Fast Food,Spencer,US,42.23341,-72.012516,McDonald's,1562,MA,"http://mcdonalds.com,http://www.mcdonalds.com/?cid=RF:YXT_FM:TP::Yext:Referral"
52,1433 SW 107th Ave,Fast Food Restaurant,Miami,US,25.754984,-80.368058,Five Guys,33174,FL,http://fiveguys.com
53,1601 W Kirby St,Fast Food Restaurant and Mexican Restaurant,Wylie,US,33.007329,-96.554127,Taco Bell,75098,TX,http://www.tacobell.com
54,7425 S Broadway Ave,Fast Food Restaurant,Tyler,US,32.274786,-95.306757,Taco Bell,75703,TX,"https://locations.tacobell.com/tx/tyler/7425-s--broadway.html?utm_source=yextandutm_campaign=yextpowerlistingsandutm_medium=referralandutm_term=028285andutm_content=website,http://www.tacobell.com"
55,100 Business Loop 70 E,Fast Food Restaurants,Columbia,US,38.964944,-92.336364,Burger King,65203,MO,https://locations.bk.com/mo/columbia/100-east-bus-loop-70.html
56,615 Martin Luther King Jr Blvd,Fast Food Restaurant and Burger Joint,Savannah,US,32.070343,-81.101032,Wendy's,31401,GA,http://www.wendys.com
57,1123 Roswell Rd,Fast Food Restaurant and Burger Joint,Marietta,US,33.95111,-84.518962,Wendy's,30062,GA,http://www.wendys.com
58,273 Keys Ferry St,Fast Food Restaurants,McDonough,US,33.446887,-84.138326,Wendy's,30253,GA,http://www.wendys.com
59,1117 W Spring St,Fast Food Restaurant,Monroe,US,33.792748,-83.731443,Wendy's,30655,GA,"http://www.wendys.com,http://wendys.com"
60,430 S Belair Rd,Fast Food Restaurants,Augusta,US,33.486344,-82.13351,Wendy's,30907,GA,"http://wendys.com,http://www.wendys.com"
61,2341 N Columbia St,Fast Food Restaurant,Milledgeville,US,33.108582,-83.254192,Wendy's,31061,GA,"http://www.wendys.com,http://api.citygridmedia.com/content/places/v2/click?q=9YKflVKbY9NauPJdMy0B1gS1IhB4xv4EWw0zDoT-UWc_izWF3zs5PKGdfOHubWrvM0QwDCYwbOH2fdLi0dK5xArULcksCCbfR-WWAz9xD1AmGVAQZIom4U3n5R4DuRC8WJCtvJcNItEKoCSfzwapuGnmwGnHDpEGYXGjnN4u8zXqkiimSHFf4_dbqGRbVgNJYD3APfFyZb1SUEABa1jmpS3OwA6Ks1I57XZf6k02m5Dvu9lByiHtpkoNNoG8cU_ZaobcdIQRWWL0md66ueT5A43ZGYiNwtovEGOgxdPQDfBzBm_AmXzmBTBk62JzmDO7Dtx-HHkNoox5ES3Ec5dXFLuW5rWaPa1RvXLXPzhDXm3S_YlAKU2Boro-4PLACNUmcza8nrVy_fzm0xyTULUoEEZ9wFukyZHufUtWn-LoyAAUrKHW_eNWV5yj61VM-YKgztWPxr1m69CU3Xcnsy9RtabxZMeaeGXJWfgH0dotSNjDkyPtXFSEVmYtKsAZJBPQgMVY7eZIMgUPPdIqHv5K0g&placement=listing_profile&cs_user=unknown&cs_session=e403c58902631e046092996f08c79277aa889e60"
62,260 Cooper Rd,Fast Food Restaurant and Burger Joint,Loganville,US,33.880381,-83.939657,Wendy's,30052,GA,"http://www.wendys.com,http://wendys.com"
63,4331 Atlanta Hwy,Fast Food Restaurant,Loganville,US,33.839726,-83.905798,Wendy's,30052,GA,http://www.wendys.com
64,3015 Panola Rd,Fast Food Restaurant,Lithonia,US,33.699522,-84.17274,Wendy's,30038,GA,http://www.wendys.com
65,184 Endicott St,Fast food restaurants,Danvers,US,42.547923,-70.942014,Burger King,1923,MA,http://www.bk.com
66,1291 Boston Rd,Fast Food Restaurants,Springfield,US,42.140526,-72.50087,Boston Road Pizza,1119,MA,http://bostonroadpizza.com
67,6134 State Route 14,Fast Food Restaurant,Ravenna,US,41.157059,-81.219054,McDonald's,44266,OH,http://mcdonalds.com
68,4402 Little Rd,Fast Food Restaurant,Arlington,US,32.679467,-97.195027,Boston Market,76016,TX,"http://www.bostonmarket.com,http://bostonmarket.com"
69,15 Highland Ave,Fast Food Restaurants,Attleboro,US,41.92023235,-71.35787658,D'Angelo Grilled Sandwiches,2703,MA,"http://www.dangelos.com,http://dangelos.com"
70,2992 Jamacha Rd,Fast Food,El Cajon,US,32.739923,-116.942156,Burger King,92019,CA,"http://www.burgerking.com/,http://www.bk.com"
71,706 Fletcher Pkwy,Fast Food Restaurants,El Cajon,US,32.80827,-116.97137,Boston Market,92020,CA,"http://www.bostonmarket.com,https://bostonmarket.com/location/el-cajon-ca-735/?utm_source=Yextandutm_medium=clickandutm_campaign=listingsandutm_content=735"
72,706 Fletcher Pkwy,Fast Food Restaurant,El Cajon,US,32.80827,-116.97137,Boston Market,92020,CA,"http://www.bostonmarket.com,https://bostonmarket.com/location/el-cajon-ca-735/?utm_source=Yextandutm_medium=clickandutm_campaign=listingsandutm_content=735"
73,822 N Johnson Ave,Fast food restaurants,El Cajon,US,32.805945,-116.971542,Burger King,92020,CA,http://www.burgerking.com/
74,2819 Easton Rd,Fast Food Restaurants,Willow Grove,US,40.170877,-75.127393,Nino's Pizzarama,19090,PA,"http://www.ninospizzarama.com,http://ninospizzarama.net"
75,8924 Sierra Ave,Fast Food Restaurant,Fontana,US,34.091528,-117.43637,Carl's Jr,92335,CA,http://www.carlsjr.com
76,18025 Ventura Blvd,Fast Food,Encino,US,34.16469,-118.52474,Carl's Jr,91316,CA,http://www.carlsjr.com/
77,242 N El Camino Real,Fast food restaurants,Encinitas,US,33.051949,-117.260994,Burger King,92024,CA,http://www.burgerking.com/
78,9002 Firestone Blvd,Fast Food Restaurant,Downey,US,33.93527552,-118.1238946,Carl's Jr,90241,CA,http://www.carlsjr.com
79,9110 Imperial Hwy,Fast Food Restaurants,Downey,US,33.91684597,-118.1337577,Carl's Jr,90242,CA,http://www.carlsjr.com
80,962 Garnet Ave,Fast Food Restaurants,San Diego,US,32.797188,-117.2525,Filippi's Pizza Grotto,92109,CA,"http://www.realcheesepizza.com,http://www.realcheesepizza.com/web/locations/pb.html"
81,7011 Barker Cypress Rd,Fast food restaurants,Cypress,US,29.88081,-95.683922,Burger King,77433,TX,http://www.bk.com
82,7011 Barker Cypress Rd,Fast Food Restaurant and Burger Joint,Cypress,US,29.88081,-95.683922,Burger King,77433,TX,http://www.bk.com
83,2180 Contra Costa Blvd,Fast Food Restaurant,Pleasant Hill,US,37.946879,-122.060174,Boston Market,94523,CA,"http://www.bostonmarket.com,https://bostonmarket.com/location/pleasant-hill-ca-1961/?utm_source=Yextandutm_medium=clickandutm_campaign=listingsandutm_content=1961"
84,3035 Castro Valley Blvd,Fast Food,Castro Valley,US,37.695437,-122.081735,Jack in the Box,94546,CA,"http://www.jackinthebox.com,http://www.jackinthebox.com/"
85,4302 Moorpark Ave,Fast Food,San Jose,US,37.315904,-121.977843,Round Table Pizza,95129,CA,"http://www.roundtablepizza.com/,http://roundtablepizza.com"
86,1751 S Alameda St,Fast Food Restaurants,Compton,US,33.894566,-118.220228,El Pollo Loco,90220,CA,http://www.elpolloloco.com
87,2244 Otay Lakes Rd,Fast Food Restaurant,Chula Vista,US,32.646857,-116.967527,Arby's,91915,CA,"http://www.arbys.com,https://locations.arbys.com/us/ca/chula-vista/2244-otay-lakes-rd.html,http://www.arbys.com/"
88,962 East Ave,Fast food restaurants,Chico,US,39.76117,-121.842187,Burger King,95926,CA,"https://locations.bk.com/ca/chico/962-east-ave.html,http://www.bk.com"
89,1170 W Branch St,Fast Food Restaurants,Arroyo Grande,US,35.1273,-120.598,In-N-Out Burger,93420,CA,http://www.in-n-out.com
90,73196 Highway 111,Fast Food Restaurants,Palm Desert,US,33.72118,-116.38791,Copper Oven Artisan Pizza,92260,CA,http://copperovenartisanpizza.com
91,20900 Roscoe Blvd,Fast Food Restaurant,Canoga Park,US,34.218957,-118.58903,Carl's Jr,91304,CA,"http://www.carlsjr.com,http://www.carlsjr.com/"
92,1760 41st Ave,Fast Food Restaurant,Capitola,US,36.975287,-121.963929,McDonald's,95010,CA,"http://mcdonalds.com,http://www.mcdonalds.com/?cid=RF:YXT_FM:TP::Yext:Referral,http://api.citygridmedia.com/content/places/v2/click?q=9YKflVKbY9NauPJdMy0B1gS1IhB4xv4EGQ6wFBP1R9j_yPfgIG2qmnnU3b4EFXLWYqzqH6pileJnsDBgYjhj6412OE3eqoLyrSIPEJpXfr10mUiQbRKfZCKZytUuX1ZpMEsmU-K0mL9uCZDhf-nRxkx0xcmqFX3TZTiNoK_LLFKzM4tXpEgtM6BtXv1F1Dtta5XsdiyvBJEV0mlmPAVL2Pu6RmeqLjpOAn33qz2UnedC1_zx5rpnLNrmgDLP8JD5ybb_0Q39GTiHHETlR-P6De5PcnwdlW-y8vyj8ebfPFpzbn9rFADOxR89FY8oXj4UIhDD_VtoRyzgHJH5V9Y-VMW6tYYPV1Mo1HKgwIeySRaqAGLkVvLdGz_CsMZ1suQUbuVO4npEtgjXhkTN1M6U6OnMStBos6B3SKu2FskRfaKS79IW6dtIJMgMX6YDrO3fsrAwOvRxD3y_9wUQipDE74g-3ujGiLw9Hu1VZzqhXGXny8vDUMMm7W9lxwbR6gY5u0kN8pas5HAodV4YJoO2wlriR6AFoJf1&placement=listing_profile.b&cs_user=unknown&cs_session=563e0edec6600f42076961856207b2e00e43040a"
93,401 Las Posas Rd,Fast Food Restaurant,Camarillo,US,34.221478,-119.070243,Carl's Jr,93010,CA,http://www.carlsjr.com
94,2871 Lenwood Rd,"Fast Food Restaurant, Mexican Restaurant, and Taco Place",Barstow,US,34.867566,-117.114747,Del Taco,92311,CA,http://www.deltaco.com
95,12690 Ramona Blvd,Fast Food Restaurant,Baldwin Park,US,34.077713,-117.996169,Del Taco,91706,CA,"http://www.deltaco.com/,http://www.deltaco.com"
96,1210 N Hacienda Blvd,Fast Food,La Puente,US,34.0422696,-117.9493495,Little Caesars Pizza,91744,CA,"http://www.littlecaesars.com,http://www.littlecaesars.com/"
97,562 N Main St,Fast Food Restaurant,Bishop,US,37.365314,-118.39508,McDonald's,93514,CA,http://mcdonalds.com
98,1310 E Lamar St,Fast Food Restaurants,Americus,US,32.07128,-84.216974,McDonald's,31709,GA,"http://mcdonalds.com,http://www.mcdonalds.com/?cid=RF:YXT_FM:TP::Yext:Referral,http://api.citygridmedia.com/content/places/v2/click?q=9YKflVKbY9NauPJdMy0B1gS1IhB4xv4EWw0zDoT-UWc_izWF3zs5PKGdfOHubWrvM0QwDCYwbOH2fdLi0dK5xArULcksCCbfR-WWAz9xD1AmGVAQZIom4U3n5R4DuRC8WJCtvJcNItEKoCSfzwapuGnmwGnHDpEGYXGjnN4u8zXqkiimSHFf4_dbqGRbVgNJLAJ_vfQBtbvB4zGTnIYoWRbIEgmM7GACT2nb6P4T534O6zsqWMT1dGYn2yZmThdG2l6bxRAehX9MMRYzPPYWyr41EJtdRX7k2W2WlBonHxD4LoeEKDlC6HoS_lxNDt4TdZGM073h_gpe34ufzx1v9MJp9LaquUJq-1ADLw6yAaZQYpZYbTJ6EcC6EfvO9ETkn3vDUWIRGp_dWtsgvTj2j_rMgdtj0BF2b71HuiaZF9wJxPHjZM0xyP5GAMXUbwE9Eil7_kubblHoZV1pgJy9TsaPTE2jphduEIq5AoFtq0Xr5preciKefI9xkeVpjaUUFPnXuPQd2tiRlJ_TWt5Z4N7qfdZS2BAJ&placement=listing_profile&cs_user=unknown&cs_session=387e0e1c0d4afa4d7f617762d1f04373dd312c3d"
99,2009 E Greenville St,Fast Food Restaurant,Anderson,US,34.54701,-82.6319,Burger King,29621,SC,"https://locations.bk.com/sc/anderson/2009-e-greenville-st.html,http://www.bk.com"
100,2521 W Commonwealth Ave,Fast Food Restaurant,Alhambra,US,34.088183,-118.151437,Carl's Jr,91803,CA,"http://www.carlsjr.com,http://www.carlsjr.com/,http://carlsjr.com"
101,3450 Wrightsboro Rd Ste 2340,Fast Food Restaurants,Augusta,US,33.46734,-82.07989,Sbarro,30909,GA,http://www.sbarro.com
102,810 Oak Ave,Fast Food,Neoga,US,39.321895,-88.451273,Casey's General Store,62447,IL,http://www.caseys.com
103,701 S Van Buren St,Fast Food,Newton,US,38.983809,-88.161001,Casey's General Store,62448,IL,http://www.facebook.com/caseysgenstore
104,9175 De Soto Ave,Fast Food Restaurants,Chatsworth,US,34.23765,-118.58919,Chipotle Mexican Grill,91311,CA,"http://www.chipotle.com,http://chipotle.com"
105,328 N Main St,Fast Food Restaurants,Cedartown,US,34.017911,-85.253614,McDonald's,30125,GA,"http://www.mcdonalds.com/?cid=RF:YXT_FM:TP::Yext:Referral,http://api.citygridmedia.com/content/places/v2/click?q=9YKflVKbY9NauPJdMy0B1gS1IhB4xv4EWw0zDoT-UWc_izWF3zs5PKGdfOHubWrvM0QwDCYwbOH2fdLi0dK5xArULcksCCbfR-WWAz9xD1AmGVAQZIom4U3n5R4DuRC8WJCtvJcNItEKoCSfzwapuGnmwGnHDpEGYXGjnN4u8zXqkiimSHFf4_dbqGRbVgNJdTI6hwkTdO70YISz9gWhZfxgpeYkj_-R9vOeA-p1khZDhlZfUGWLzjorWZg3AbwYZrHfJw5wxFp6UvANO_y4sUDxEjtjqYRURVajG48cn8DG8XtxI_quyfbdkLD8UAAE6l2unFkm-j08eNMRITEhxrf-0J0t7QQl_m5QBqQxGUAIJbP4tuCKlQ5UkS_2fbv0TNkOmTRColjTv49Ic8j4qdTS8opNbGJI7wG3MpG-XO2aQiFOAPyWLWvX5xc7tgkkSrWFPPf6568Z0ebn5QPYCxsczgnGFxXTbEtNwrbSzXMr0bAXtLCc7THhEc6fIeLJLRY2-BiFu2XQugiS_Jnt2c17suE6c9DV&placement=listing_profile&cs_user=unknown&cs_session=c67eaf7275f5c760207335f24d46a3bfc849009c"
106,3025 Main St,Fast food restaurants,Glastonbury,US,41.726353,-72.617608,Burger King,6033,CT,"http://www.bk.com,http://bk.com"
107,2834 Main St,"American Restaurant, Sandwich Place, and Fast Food Restaurant",Glastonbury,US,41.720514,-72.614164,Boston Market,6033,CT,"http://www.bostonmarket.com,http://bostonmarket.com"
108,605 E Broadway St,Fast Food Restaurant,Campbellsville,US,37.346447,-85.337368,McDonald's,42718,KY,"http://www.mcdonalds.com/?cid=RF:YXT_FM:TP::Yext:Referral,http://mcdonalds.com,http://api.citygridmedia.com/content/places/v2/click?q=9YKflVKbY9NauPJdMy0B1gS1IhB4xv4EGQ6wFBP1R9j_yPfgIG2qmnnU3b4EFXLWYqzqH6pileJnsDBgYjhj6412OE3eqoLyrSIPEJpXfr10mUiQbRKfZCKZytUuX1ZpMEsmU-K0mL9uCZDhf-nRxkx0xcmqFX3TZTiNoK_LLFKzM4tXpEgtM6BtXv1F1DttlBrudHdoBH_DGjaTmU8PwdbfJ2xHPn7Rwi4U85-2Et587Fq8vmz8iGAm0EjY1KA0R2zhuMhnQKoGqWThgFN8jTErCjxtP6ollGXsWzGWbhCoZclcoPdleGfT21PW-SYTIkUwmGBOAc4gxt97kOU6h8_7VAEhFodMhojUnjcQV0jzIOdXWrA8XHVWc4Ne2mCN0L_k5sP1s5HSZuyYKD74rjqX9DHdfLf_fh_cwv2f3PoRNruakJsx4Q77MvV36wSfVo-ccW5rGjnV-Ji-wuoCGkbaadlEUapm8WquQeqX4seGxwJZ4u_gdLYz906J0I5hqNjQlV0cpIEe-RABopzNSK7YVr3R-iFf&placement=listing_profile.b&cs_user=unknown&cs_session=c32e8929edce4f151a7e8f5f303f328388f837d7"
109,1602 E Broadway St,Fast Food Restaurant,Campbellsville,US,37.357213,-85.323654,SUBWAY,42718,KY,"http://www.subway.com,http://api.citygridmedia.com/content/places/v2/click?q=9YKflVKbY9NauPJdMy0B1gS1IhB4xv4EWw0zDoT-UWc_izWF3zs5PKGdfOHubWrvM0QwDCYwbOH2fdLi0dK5xArULcksCCbfR-WWAz9xD1AmGVAQZIom4U3n5R4DuRC8WJCtvJcNItEKoCSfzwapuGnmwGnHDpEGYXGjnN4u8zXqkiimSHFf4_dbqGRbVgNJrdpPH-jgTbkJVTDQ1eCKgW3VOJJPaEiUYk16SKia0wRbqbTrXrgOsTg6wvGYc7dD1JIugQyrEUjnheYMMfX7Lky5pbVLFPFbmAdGfdN8Nma7PGSKUXuqWgSpzEoUOKRdREuu5IhJf96KRMuWIVvtH4jsN7WtpquET2jm2wBIaUf0DSjXK7JJJbHAjR6-fcD9M9PkPMxSZVgQ8O3zIdkLn-PAVgBDJjHcBzOI8KJ0HKCvsWneLvVENMvDMFMCKHJ54zLmr3V76V2cVgUiaMt1VwJtMegdL5gmMum2a24nxrMq824yTST5BTVAcxhcohCYA9mZJSDrvQ4ZJ163lihC7FFPTsEqh0Lx&placement=listing_profile&cs_user=unknown&cs_session=aed3031b0c80181e40d32382a48b58fd6fc54832"
110,1475 Holiday Ln,Fast food restaurants,Fairfield,US,38.259527,-122.062146,Burger King,94534,CA,http://www.bk.com
111,1442 Winchester Ave,Fast Food Restaurants,Ashland,US,38.4791,-82.6411,Fat Patty's,41101,KY,"http://www.fatpattysonline.com,http://fatpattysonline.com"
112,12759 Us Route 60,Fast Food Restaurants,Ashland,US,38.3887,-82.7156,Dairy Queen,41102,KY,http://www.dairyqueen.com
113,1439 S US Highway 1,Fast Food Restaurants,Fort Pierce,US,27.4357,-80.326,Pizza Hut,34950,FL,http://www.pizzahut.com
114,12915 Cortez Blvd,"Fast Food Restaurant, American Restaurant, and Sandwich Place",Brooksville,US,28.534187,-82.516103,Arby's,34613,FL,"http://www.arbys.com,http://arbys.com"
115,11671 Se Federal Hwy,Fast Food Restaurant,Hobe Sound,US,27.06168,-80.13746,McDonald's,33455,FL,http://mcdonalds.com
116,8792 Navarre Pkwy,Burger Joint and Fast Food Restaurant Gulf Breeze,Navarre,US,30.403772,-86.85506,Culver's,32566,FL,"http://www.culvers.com,http://culvers.com/restaurants/navarre-fl"
117,825 E 49th St,Fast food restaurants,Hialeah,US,25.867613,-80.266376,Burger King,33013,FL,"http://www.bk.com,http://www.burgerking.com/"
118,2750 W 68th St Ste 104,Fast Food,Hialeah,US,25.882938,-80.33868,Pizza Hut,33016,FL,"http://www.pizzahut.com,http://www.pizzahut.com/"
119,36172 Hwy 27,Fast Food,Haines City,US,28.125757,-81.64043,Dairy Queen,33844,FL,"http://www.dairyqueen.com/,http://dairyqueen.com"
120,52 Tuscan Way Ste 208,Fast Food Restaurants,Saint Augustine,US,29.96174,-81.49109,Pizza Hut,32092,FL,http://www.pizzahut.com
121,1232 Providence Blvd,Fast Food Restaurant,Deltona,US,28.8829,-81.2413,KFC,32725,FL,"http://www.kfc.com,http://kfc.com"
122,2370 US Highway 331 S,Fast food restaurants,DeFuniak Springs,US,30.68782,-86.12318,McDonald's,32435,FL,"http://www.mcdonalds.com/?cid=RF:YXT_FM:TP::Yext:Referral,http://api.citygridmedia.com/content/places/v2/click?q=9YKflVKbY9NauPJdMy0B1gS1IhB4xv4EGQ6wFBP1R9j_yPfgIG2qmnnU3b4EFXLWYqzqH6pileJnsDBgYjhj6412OE3eqoLyrSIPEJpXfr10mUiQbRKfZCKZytUuX1ZpMEsmU-K0mL9uCZDhf-nRxkx0xcmqFX3TZTiNoK_LLFKzM4tXpEgtM6BtXv1F1Dtt581JwH6rvi9UN2-AW34ISP0JhtFQGQLnDdvfQfrSO-zvO4AkSGgIkC0OkjRwrc_8XrbSDDlmhDrDxBVDmhrkP7KvU1bGJpElXa8uBndpVCIlriAsonKvp2MumhEshE40Aw0-dsieNYX2S9DzU5m6vregqZfEgTwhYO8AQ8LLx1EfG6Ahb1UU9RfR156SW0jUuA_qjgypXlwHx2tMyK8o-BiTP4Wgo0l6Tt48vg-Bc-EUANa7o7S62LuTc-HKnggjJQ_HFw_NywLHUwWkEeWnvvdqCJ3HbvPaW6Lm0fPy-QDpBzTDGCzP_7rzg1AMEv53BprniE-P2sJYRBjqQp2V2d7dIqyqpN1W&placement=listing_profile.b&cs_user=unknown&cs_session=6f41a129348aa81b8accd61d91669a3ef8d9d655"
123,1508 US Highway 331 S,Fast Food Restaurant,DeFuniak Springs,US,30.70032,-86.12317,SONIC Drive-In,32435,FL,"https://locations.sonicdrivein.com/fl/defuniak-springs/1508-u-s--hwy-331-south.html,http://sonicdrivein.com"
124,2434 US Highway 331 S,Fast Food Restaurants,DeFuniak Springs,US,30.68693,-86.12329,Whataburger,32435,FL,"https://locations.whataburger.com/fl/defuniak-springs/2434-us-highway-331-s.html/,https://locations.whataburger.com/fl/defuniak-springs/2434-us-highway-331-s.html/?utm_source=yextpagesandutm_medium=locallistingsandutm_campaign=yextpages,https://locations.whataburger.com/fl/defuniak-springs/2434-us-highway-331-s.html/?utm_source=yextpages&utm_medium=locallistings&utm_campaign=yextpages"
125,9975 Corkscrew Rd,"Fast Food Restaurant, Sandwich Place, and American Restaurant",Estero,US,26.432003,-81.789408,Arby's,33928,FL,"http://www.arbys.com,http://locations.arbys.com/us/fl/estero/9975-corkscrew-rd.html"
126,519 Brandon Town Center Mall,Fast Food Restaurants,Brandon,US,27.928097,-82.324836,Chick-Fil-A,33511,FL,http://www.chick-fil-a.com/westfieldbrandon
127,865 S Main St,Fast Food Restaurant,Belle Glade,US,26.67511,-80.67,Taco Bell,33430,FL,"http://www.tacobell.com,https://locations.tacobell.com/fl/belle-glade/865-south-main-street.html?utm_source=yextandutm_campaign=yextpowerlistingsandutm_medium=referralandutm_term=028590andutm_content=website,http://tacobell.com"
128,339 US Highway 27 S,Fast Food Restaurant,Avon Park,US,27.596742,-81.494029,McDonald's,33825,FL,"http://www.mcdonalds.com/?cid=RF:YXT_FM:TP::Yext:Referral,http://mcdonalds.com,http://api.citygridmedia.com/content/places/v2/click?q=9YKflVKbY9NauPJdMy0B1gS1IhB4xv4EWw0zDoT-UWc_izWF3zs5PKGdfOHubWrvM0QwDCYwbOH2fdLi0dK5xArULcksCCbfR-WWAz9xD1AmGVAQZIom4U3n5R4DuRC8WJCtvJcNItEKoCSfzwapuGnmwGnHDpEGYXGjnN4u8zXqkiimSHFf4_dbqGRbVgNJH082dWwoivc4p4kYcNctobV9d38jH7Uy-8s-6g-hHOcn8pK-EbMNfkijcS63cHK1O1bbz83Ue83JCdx1TixCNR2LYzXfU6L0dSkSxuTZ3Lq5VfyeGRg0LrcjQMAFb3FVHVJ3WARRKOLBF7fUDiThK0yXv7cfKps9_A3VjX2XeiZELE2ptulcV9a58R5y9pFUfjHddluI_Y0AyG54NxPxX8SoWeyfZo2zpaC4ZoeD_Gs_0bjOOvh8ON-OuH0Pb9waSdvDRDNlNkfm9H20Z-pkWtDOwMPZttSHkmuBqw1ndIs-jBEKdc0gWNjURXlxLMGkIbBYlj7CwRLnxCeKWvanRynguEUbZ9LH&placement=listing_profile&cs_user=unknown&cs_session=47264dd99389ccea3fa66609402cc35cc57f4737"
129,1498 US Highway 17 N,Fast Food Restaurants,Wauchula,US,27.56904,-81.81521,Pizza Hut,33873,FL,"http://www.pizzahut.com,http://api.citygridmedia.com/content/places/v2/click?q=9YKflVKbY9NauPJdMy0B1gS1IhB4xv4EWw0zDoT-UWc_izWF3zs5PKGdfOHubWrvM0QwDCYwbOH2fdLi0dK5xArULcksCCbfR-WWAz9xD1AmGVAQZIom4U3n5R4DuRC8WJCtvJcNItEKoCSfzwapuGnmwGnHDpEGYXGjnN4u8zXqkiimSHFf4_dbqGRbVgNJLpjy3VUlKNh5fCAtnz4V-8bhJKzZuaQD1ca6FJqGo-lzldJqcinKEpHAkWuqda0Ne8oNZbA85xASB2d6apqWts_PSHBIUmoG3-nr-8gGvFTxeygH1B8SMrNrsTqHo2CKSQJJl0Uxo9GLc4TQG-5tee4TO3FDukULdmWBiK7upIMB0h-7jYYSApyO_DOgSBUM44jczEXGuTn_YLE1zzic4v6MEWcB05IjmINYQVe9QG2zert5bHNmfq3l3W27n8JaQ-lIJJ7UrUjNTTeVg_QY8z4zPoT-krZ0CiJ6MYqd-V2Wy-KoyGQrJ-iTBNPhuz8hnx0zO5qusUZCucT6WoakpFzgEQkvqo9X&placement=listing_profile&cs_user=unknown&cs_session=c3d172019472fa4e5bdc9385b94c631ca2bc0c45"
130,1608 W Orange Blossom Trl,Fast Food,Apopka,US,28.68587218,-81.53919026,Firehouse Subs,32712,FL,"https://www.firehousesubs.com/locations/fl/apopka-commons,http://www.firehousesubs.com"
131,460 Airways Ave,Fast Food Restaurant,Savannah,US,32.135603,-81.208243,Burger King,31408,GA,"http://bk.com,https://locations.bk.com/ga/savannah/460-airways-ave.html,http://www.bk.com"
132,1510 N Summit St,Fast Food Restaurant,Arkansas City,US,37.08012,-97.03938,SONIC Drive-In,67005,KS,"https://locations.sonicdrivein.com/ks/arkansas-city/1510-north-summit-street.html,http://sonicdrivein.com"
133,2613 Central Ave,Fast Food Restaurants,Dodge City,US,37.77885,-100.01663,McDonald's,67801,KS,http://www.mcdonalds.com/?cid=RF:YXT_FM:TP::Yext:Referral
134,2501 Se Delaware Ave,Fast Food Restaurants,Ankeny,US,41.704627,-93.580975,Burger King,50021,IA,"http://www.bk.com,https://locations.bk.com/ia/ankeny/2501-s-e-delaware.html"
135,2501 Se Delaware Ave,Fast Food Restaurant,Ankeny,US,41.704627,-93.580975,Burger King,50021,IA,"http://www.bk.com,https://locations.bk.com/ia/ankeny/2501-s-e-delaware.html"
136,134 W Kamehameha Ave,Fast Food Restaurants,Kahului,US,20.8874,-156.4698,Cupie's Drive-In,96732,HI,http://www.cupiesdrivein.com
137,230 S Duff Ave,"Fast Food Restaurant, American Restaurant, and Sandwich Place",Ames,US,42.02045,-93.60967,Chick-Fil-A,50010,IA,"http://www.chick-fil-a.com/ames,http://www.chick-fil-a.com,http://chick-fil-a.com/ames"
138,2817 E 13th St,Fast Food Restaurants,Ames,US,42.03511,-93.57344,Burger King,50010,IA,"https://locations.bk.com/ia/ames/2817-east-13th-st.html,http://www.bk.com"
139,1020 E 1st St,Fast Food Restaurant,Ankeny,US,41.732374,-93.582329,Burger King,50021,IA,"http://www.bk.com,https://locations.bk.com/ia/ankeny/1020-east-1st-st.html"
140,2450 S Vista Ave,Fast Food Restaurants,Boise,US,43.580339,-116.213106,Pizza Hut,83705,ID,http://www.pizzahut.com
141,1807 N Church St,Fast food restaurants,Burlington,US,36.09503,-79.408,Burger King,27217,NC,"http://www.bk.com,https://locations.bk.com/nc/burlington/1807-north-church-st.html,http://bk.com"
142,2535 18th St,Fast Food Restaurants,Bettendorf,US,41.548648,-90.504798,Dairy Queen,52722,IA,http://www.dairyqueen.com
143,9320 Steele Creek Rd,Fast Food Restaurant,Charlotte,US,35.16361,-80.96889,McDonald's,28273,NC,"http://www.mcdonalds.com/?cid=RF:YXT_FM:TP::Yext:Referral,http://mcdonalds.com"
144,9640 Mariposa Rd,Fast Food Restaurant,Hesperia,US,34.425812,-117.378018,Burger King,92344,CA,http://www.bk.com
145,17021 Main St,Fast food restaurants,Hesperia,US,34.419638,-117.291579,Burger King,92345,CA,http://www.bk.com
146,14485 Inglewood Ave,Fast Food Restaurant,Hawthorne,US,33.899881,-118.361657,Del Taco,90250,CA,http://deltaco.com
147,18070 Chatsworth St,Fast Food Restaurant,Granada Hills,US,34.264517,-118.526782,Del Taco,91344,CA,"http://www.deltaco.net,http://deltaco.net"
148,1200 Forrest Ave,Fast Food Restaurant,Dover,US,39.158375,-75.550267,Arby's,19904,DE,"http://www.arbys.com,https://locations.arbys.com/us/de/dover/1200-forrest-ave.html,http://locations.arbys.com/us/de/dover/1200-forrest-ave.html"
